ONEWEB-0317             
1 49103U 21075AE  24083.69505011 -.00000112  00000+0 -34617-3 0  9995
2 49103  87.9007 152.9944 0001775 106.6693 253.4631 13.12436883128223
ONEWEB-0318             
1 49104U 21075AF  24083.86333546  .00000078  00000+0  16406-3 0  9992
2 49104  87.9177 137.7503 0002373  98.0222 262.1180 13.18684702129713
ONEWEB-0319             
1 49105U 21075AG  24084.53028011  .00000107  00000+0  24210-3 0  9991
2 49105  87.9252 167.9660 0002619 106.1394 254.0026 13.17647655127319
ONEWEB-0323             
1 49106U 21075AH  24084.44789450 -.00000348  00000+0 -10014-2 0  9998
2 49106  87.9005 152.8329 0002255 104.6290 255.5089 13.12440419128685
ONEWEB-0329             
1 49107U 21075AJ  24084.46225872  .00000078  00000+0  16783-3 0  9992
2 49107  87.9252 167.9830 0002188 109.6570 250.4798 13.17649025127280
ONEWEB-0330             
1 49108U 21075AK  24083.78041541  .00000055  00000+0  10827-3 0  9994
2 49108  87.9253 168.1181 0002095 111.8287 248.3068 13.17647988126248
ONEWEB-0292             
1 49186U 21083A   24083.83550706 -.00000148  00000+0 -43919-3 0  9996
2 49186  87.8921 122.5699 0002114  94.5512 265.5858 13.13470654123899
ONEWEB-0303             
1 49187U 21083B   24083.86019290  .00000128  00000+0  29161-3 0  9997
2 49187  87.9179 137.7498 0002303  97.8818 262.2575 13.18686296122521
